{
  "type": "FeatureCollection",
  "features": [
    {
      "type": "Feature",
      "properties": {
        "norad_id": 30264,
        "name": "FENGYUN 1C DEB",
        "group": "fengyun-1c-debris",
        "lat": 80.76071995844941,
        "lon": -28.179182125047333,
        "alt_km": 937.8841518170393,
        "timestamp": "2025-12-18T21:31:51.276737+00:00",
        "meta_object_name": "FENGYUN 1C DEB",
        "meta_object_id": "1999-025XZ",
        "meta_epoch": "2025-12-18T02:29:11.269824",
        "meta_mean_motion": 14.07659113,
        "meta_eccentricity": 0.01076531,
        "meta_inclination": 98.97,
        "meta_ra_of_asc_node": 47.1951,
        "meta_arg_of_pericenter": 272.25,
        "meta_mean_anomaly": 116.5101,
        "meta_ephemeris_type": 0,
        "meta_classification_type": "U",
        "meta_norad_cat_id": 30264,
        "meta_element_set_no": 999,
        "meta_rev_at_epoch": 96633,
        "meta_bstar": 0.0010699499,
        "meta_mean_motion_dot": 1.861e-05,
        "meta_mean_motion_ddot": 0,
        "tle_line1": "1 30264U 99025XZ  25352.10360266  .00001861  00000+0  10699-2 0  9993",
        "tle_line2": "2 30264  98.9700  47.1951 0107653 272.2500 116.5101 14.07659113966336"
      },
      "geometry": {
        "type": "Point",
        "coordinates": [
          -28.179182125047333,
          80.76071995844941
        ]
      }
    },
    {
      "type": "Feature",
      "properties": {
        "norad_id": 30265,
        "name": "FENGYUN 1C DEB",
        "group": "fengyun-1c-debris",
        "lat": 22.013375180490915,
        "lon": -74.18133196260547,
        "alt_km": 716.150984405398,
        "timestamp": "2025-12-18T21:31:51.276748+00:00",
        "meta_object_name": "FENGYUN 1C DEB",
        "meta_object_id": "1999-025YA",
        "meta_epoch": "2025-12-17T07:13:33.858048",
        "meta_mean_motion": 14.58711797,
        "meta_eccentricity": 0.00281774,
        "meta_inclination": 98.6643,
        "meta_ra_of_asc_node": 100.6206,
        "meta_arg_of_pericenter": 358.4743,
        "meta_mean_anomaly": 62.5224,
        "meta_ephemeris_type": 0,
        "meta_classification_type": "U",
        "meta_norad_cat_id": 30265,
        "meta_element_set_no": 999,
        "meta_rev_at_epoch": 98468,
        "meta_bstar": 0.0016351914,
        "meta_mean_motion_dot": 7.627e-05,
        "meta_mean_motion_ddot": 0,
        "tle_line1": "1 30265U 99025YA  25351.30108632  .00007627  00000+0  16352-2 0  9990",
        "tle_line2": "2 30265  98.6643 100.6206 0028177 358.4743  62.5224 14.58711797984684"
      },
      "geometry": {
        "type": "Point",
        "coordinates": [
          -74.18133196260547,
          22.013375180490915
        ]
      }
    },
    {
      "type": "Feature",
      "properties": {
        "norad_id": 30266,
        "name": "FENGYUN 1C DEB",
        "group": "fengyun-1c-debris",
        "lat": -72.16155486727536,
        "lon": 86.85246272891301,
        "alt_km": 881.2339928520987,
        "timestamp": "2025-12-18T21:31:51.276758+00:00",
        "meta_object_name": "FENGYUN 1C DEB",
        "meta_object_id": "1999-025YB",
        "meta_epoch": "2025-12-18T03:27:54.564192",
        "meta_mean_motion": 14.15107499,
        "meta_eccentricity": 0.00822388,
        "meta_inclination": 99.0427,
        "meta_ra_of_asc_node": 56.429,
        "meta_arg_of_pericenter": 50.6414,
        "meta_mean_anomaly": 3.0017,
        "meta_ephemeris_type": 0,
        "meta_classification_type": "U",
        "meta_norad_cat_id": 30266,
        "meta_element_set_no": 999,
        "meta_rev_at_epoch": 96866,
        "meta_bstar": 0.00097356066,
        "meta_mean_motion_dot": 1.906e-05,
        "meta_mean_motion_ddot": 0,
        "tle_line1": "1 30266U 99025YB  25352.14438153  .00001906  00000+0  97356-3 0  9996",
        "tle_line2": "2 30266  99.0427  56.4290 0082238  50.6414   3.0017 14.15107499968666"
      },
      "geometry": {
        "type": "Point",
        "coordinates": [
          86.85246272891301,
          -72.16155486727536
        ]
      }
    },
    {
      "type": "Feature",
      "properties": {
        "norad_id": 30267,
        "name": "FENGYUN 1C DEB",
        "group": "fengyun-1c-debris",
        "lat": 28.782553066218522,
        "lon": 59.1870513624899,
        "alt_km": 852.7098524031644,
        "timestamp": "2025-12-18T21:31:51.276768+00:00",
        "meta_object_name": "FENGYUN 1C DEB",
        "meta_object_id": "1999-025YC",
        "meta_epoch": "2025-12-18T04:31:30.960192",
        "meta_mean_motion": 14.23642865,
        "meta_eccentricity": 0.00595034,
        "meta_inclination": 98.8501,
        "meta_ra_of_asc_node": 63.3844,
        "meta_arg_of_pericenter": 227.5851,
        "meta_mean_anomaly": 132.0284,
        "meta_ephemeris_type": 0,
        "meta_classification_type": "U",
        "meta_norad_cat_id": 30267,
        "meta_element_set_no": 999,
        "meta_rev_at_epoch": 97372,
        "meta_bstar": 0.0012678228,
        "meta_mean_motion_dot": 2.899e-05,
        "meta_mean_motion_ddot": 0,
        "tle_line1": "1 30267U 99025YC  25352.18855278  .00002899  00000+0  12678-2 0  9997",
        "tle_line2": "2 30267  98.8501  63.3844 0059503 227.5851 132.0284 14.23642865973720"
      },
      "geometry": {
        "type": "Point",
        "coordinates": [
          59.1870513624899,
          28.782553066218522
        ]
      }
    },
    {
      "type": "Feature",
      "properties": {
        "norad_id": 30270,
        "name": "FENGYUN 1C DEB",
        "group": "fengyun-1c-debris",
        "lat": 73.10096736252785,
        "lon": -143.29822796795753,
        "alt_km": 843.617927029366,
        "timestamp": "2025-12-18T21:31:51.276779+00:00",
        "meta_object_name": "FENGYUN 1C DEB",
        "meta_object_id": "1999-025YF",
        "meta_epoch": "2025-12-18T07:44:46.159008",
        "meta_mean_motion": 14.11273662,
        "meta_eccentricity": 0.00076752,
        "meta_inclination": 98.7018,
        "meta_ra_of_asc_node": 5.873,
        "meta_arg_of_pericenter": 144.4365,
        "meta_mean_anomaly": 283.6527,
        "meta_ephemeris_type": 0,
        "meta_classification_type": "U",
        "meta_norad_cat_id": 30270,
        "meta_element_set_no": 999,
        "meta_rev_at_epoch": 97440,
        "meta_bstar": 0.00010777976,
        "meta_mean_motion_dot": 1.52e-06,
        "meta_mean_motion_ddot": 0,
        "tle_line1": "1 30270U 99025YF  25352.32275647  .00000152  00000+0  10778-3 0  9993",
        "tle_line2": "2 30270  98.7018   5.8730 0007675 144.4365 283.6527 14.11273662974402"
      },
      "geometry": {
        "type": "Point",
        "coordinates": [
          -143.29822796795753,
          73.10096736252785
        ]
      }
    },
    {
      "type": "Feature",
      "properties": {
        "norad_id": 30272,
        "name": "FENGYUN 1C DEB",
        "group": "fengyun-1c-debris",
        "lat": 51.53378981711962,
        "lon": 49.196613616737224,
        "alt_km": 808.0282830342512,
        "timestamp": "2025-12-18T21:31:51.276789+00:00",
        "meta_object_name": "FENGYUN 1C DEB",
        "meta_object_id": "1999-025YH",
        "meta_epoch": "2025-12-18T04:18:41.188032",
        "meta_mean_motion": 14.14735581,
        "meta_eccentricity": 0.00506433,
        "meta_inclination": 98.9014,
        "meta_ra_of_asc_node": 59.8583,
        "meta_arg_of_pericenter": 88.6095,
        "meta_mean_anomaly": 272.0879,
        "meta_ephemeris_type": 0,
        "meta_classification_type": "U",
        "meta_norad_cat_id": 30272,
        "meta_element_set_no": 999,
        "meta_rev_at_epoch": 96933,
        "meta_bstar": 0.00094962496,
        "meta_mean_motion_dot": 1.808e-05,
        "meta_mean_motion_ddot": 0,
        "tle_line1": "1 30272U 99025YH  25352.17964338  .00001808  00000+0  94962-3 0  9996",
        "tle_line2": "2 30272  98.9014  59.8583 0050643  88.6095 272.0879 14.14735581969333"
      },
      "geometry": {
        "type": "Point",
        "coordinates": [
          49.196613616737224,
          51.53378981711962
        ]
      }
    },
    {
      "type": "Feature",
      "properties": {
        "norad_id": 30273,
        "name": "FENGYUN 1C DEB",
        "group": "fengyun-1c-debris",
        "lat": 56.523039016344335,
        "lon": -159.11017124228283,
        "alt_km": 893.7198818729748,
        "timestamp": "2025-12-18T21:31:51.276799+00:00",
        "meta_object_name": "FENGYUN 1C DEB",
        "meta_object_id": "1999-025YJ",
        "meta_epoch": "2025-12-18T07:22:08.263776",
        "meta_mean_motion": 14.02668173,
        "meta_eccentricity": 0.00604227,
        "meta_inclination": 98.84,
        "meta_ra_of_asc_node": 6.7065,
        "meta_arg_of_pericenter": 233.7774,
        "meta_mean_anomaly": 151.205,
        "meta_ephemeris_type": 0,
        "meta_classification_type": "U",
        "meta_norad_cat_id": 30273,
        "meta_element_set_no": 999,
        "meta_rev_at_epoch": 96607,
        "meta_bstar": 0.00032209503,
        "meta_mean_motion_dot": 4.62e-06,
        "meta_mean_motion_ddot": 0,
        "tle_line1": "1 30273U 99025YJ  25352.30704009  .00000462  00000+0  32210-3 0  9992",
        "tle_line2": "2 30273  98.8400   6.7065 0060422 233.7774 151.2050 14.02668173966077"
      },
      "geometry": {
        "type": "Point",
        "coordinates": [
          -159.11017124228283,
          56.523039016344335
        ]
      }
    }
  ]
}